Name,Latitude,Longitude,Address
Head Post Office,12.6550221,79.2960012,"Unnamed Road, Tiruvannamalai, Thunthareegampattu, Tamil Nadu 632316"
Tiruvannamalai Head Post Office,12.2352197,79.0763095,"No. 113/133, Thiyagi annamalai nagar, Mathalangulam, Tiruvannamalai, Tamil Nadu 606601"
Ramanasramam Post Office,12.2214918,79.0557655,"63C4+HCV, TSR Nagar, Tiruvannamalai, Tamil Nadu 606603"
India Post Office Pachal,12.26924,78.9415784,"7W9R+MPX, NH-66, Pachal, Tiruvannamalai, Tamil Nadu 606704"
Indian Post Office Mathur,12.1923611,79.0842328,"Mathur, Velu Nagar, Tiruvannamalai, SH-9, Thirukoilure Tiruvannamalai Road, Tiruvannamalai, Tiruvannamalai, 606603"
Post office,12.2183714,79.0770682,"26/86, saron tirukovilure road, Edapalayam, Melathikkan, Tiruvannamalai, Tamil Nadu 606601"
India Post Office Sevoor,12.6885846,79.2675375,"M7Q9+C4P, SH 132, Sevoor, Tiruvannamalai, Tamil Nadu 632316"
India Post Chetpet,12.4666067,79.3533074,"Nedungunam, Tiruvannamalai, SH-4, Arcot Arni Chetpet Gingee Villupuram Road, Tiruvannamalai, Tiruvannamalai, 606801"
India Post Office Samuthiram,12.207589,79.0491724,"625X+2QP, Mariamman Koil 6th St, Ganesapuram, Tiruvannamalai, Tamil Nadu 606601"
India Post Office Radhapuram,12.1600468,78.9682366,"Radhapuram, Tiruvannamalai, SH-6A, Thiruvannamalai Harur Road, Tiruvannamalai, Tiruvannamalai, 606707"
Post office,12.1212263,79.0787989,"1, tiruvannamalai, Tamil Nadu 606808"
India Post Office Thachampattu,12.0904433,79.083114,"Thachampattu, Tiruvannamalai, SH-9A, Melkachirappattu Road, Tiruvannamalai, Tiruvannamalai, 606811"
KALAMBUR POST OFFICE,12.6295528,79.2137495,"J6H7+RJC, X Road, Mukkurumbai, Kalambur, Tamil Nadu 606903"
Anakkavoor Post Office,12.6378136,79.5439709,"JGQV+4PC, Anakavur, Tamil Nadu 604401"
Post Office Tanipadi,12.1075251,78.8353817,"12°06'27.1""N 78°50'08.2""E"
India Post,12.3108891,78.7893025,"8Q6Q+9R4, Perumal Koil St, Maruthi Nagar, Chengam, Tamil Nadu 606701"
Post Office,12.342833,78.799471,"8QVX+4WJ, Tiruvannamalai, Tamil Nadu 606710"
POST OFFICE PASSPORT SEVA KENDRA,12.667473,79.2840975,"30, Arani - Devikapuram Rd, Eb Nagar, Arani, Tamil Nadu 632301"
Tiruvanamalai Bazaar Sub Post office,12.2307773,79.0702746,"63JC+867, Pavazhakundur, Tiruvannamalai, Annamalai R.F., Tamil Nadu 606601"
Polur Post Office,12.5111132,79.125921,"G46G+CFW, Polur, Tamil Nadu 606803"
Post Office,12.2846264,79.0706598,"73MC+V94, Deepam Nagar, Durgainammiyandal, Tiruvannamalai, Tamil Nadu 606604"
Kanji Sub Post Office,12.3824594,78.9617792,"9XJ6+XRM, Kanji - Tiruvannamalai Rd, Kanji, Tamil Nadu 606702"
Post Iffice,12.2305109,79.0784355,"63JH+6F4, 5th St, Gandhi Nagar, Tiruvennanallur, Tiruvannamalai, Tamil Nadu 606601"
India Post Office Velleri,12.7225677,79.3003894,"Velleri, Tiruvannamalai, SH-4, Tiruvannamalai, Tiruvannamalai, 632504"
Post Office,12.6707994,79.2585176,"M7C5+8G7, Mullipattu, Tamil Nadu 632316"
India Post Office Kilsirupakkam,12.180982,79.0101084,"Kilsirupakkam, Tiruvannamalai, SH-6A, Thiruvannamalai Harur Road, Tiruvannamalai, Tiruvannamalai, 606707"
Tamil Nadu Housing Board,12.2201572,79.0628253,"63C7+369, Thamarai Nagar, Tiruvannamalai, Tamil Nadu 606601"
Thethurai Post office,12.6123864,79.6330197,"Thethurai, Tiruvannamalai, SH-116, Kanchipuram Vandavasi Road, Vandavasi, Vandavasi, 603403"
Vengikkal Post Office,12.2252841,79.0744141,"Mathiyazhagan, Tiruvannamalai, Tamil Nadu 606601"
Kolathur Post Office,12.1726575,79.2000531,"56F2+348, Kolathur, Tamil Nadu 606755"
"Sub Post Office, Pandalam",11.895306,78.9309564,"Pandalam .A, Viluppuram, SH-6, Kallakurichi Tiruvannamalai Road, Viluppuram, Viluppuram, 606402"
Cheyyar Head Post Office,12.6568671,79.5412791,"MG4R+PJV, Cheyyar, Tamil Nadu 604407"
Post Office,12.1094328,79.2445176,"467W+2PM, 479/77, Gandhi Road, Palla St, area, Vettavalam, Tamil Nadu 606754"
India Post Office Thellar,12.4031343,79.5514899,"Thellar, Tiruvannamalai, SH-5, Vandavasi, Vandavasi, 604406"
Post office Kannamangalam,12.7501095,79.1516719,"Q522+2QW, Kilvallam, Kannamangalam, Tamil Nadu 632311"
Thirukoilure Head Post Office,11.9655183,79.2040108,"X683+6P3, SH 137, Thirukoilure, Tamil Nadu 605757"
Adamangalam Post Office,12.4768182,78.9874503,"FXGQ+P3H, Adamangalam, Tamil Nadu 606901"
Narayanakuppam Post Office,12.0970436,78.8719808,"3VWC+JQC, Narayanakuppam, Tamil Nadu 606708"
Adaiyur post office,12.2637365,79.0459667,"727W+FFX, Adayur, Tamil Nadu 606604"
"Indian Post office, Ayyankulam branch",12.225584,79.074515,"63GF+6WM, MDR411, Tiruvennanallur, Tiruvannamalai, Tamil Nadu 606601"
Vandavasi Post Office,12.5027103,79.6028786,"GJ33+37M, Vandavasi, Tamil Nadu 604408"
India Post Office Sennavaram,12.503225,79.6146674,"Sennavaram, Tiruvannamalai, SH-115, Cheyur Vandawasi Polur Road, Vandavasi, Vandavasi, 604408"
Cheyyar Post Office,12.662016,79.5428409,"Main Road, Adhiparasakthi, Vallam Rd, Cheyyar, Tamil Nadu 604407"
Ramana nagar,12.2221669,79.0563675,"Siva Sannidhi, Opp. Sri Ramana Ashram, Chengam Road, Tiruvannamalai, Tamil Nadu – 606 603, India., TSR Nagar, Tiruvannamalai, Tamil Nadu 606601"
Tiruvannamalai road MANAMPONDI BDO office bus stop,11.9851299,79.2025339,"X6P3+344, Manampoondi, Tamil Nadu 605759"
Post Office,12.2462401,79.2303082,"66WJ+F6W, Kil Pennathur, Tamil Nadu 604601"
Post Office - Pavithiram,12.1150417,79.126525,"448G+2P7, Pavithiram, Tamil Nadu 606806"
India Post Office Murarbadu,11.825314,78.9462044,"Murarbadu, Viluppuram, SH-6, Kallakurichi Tiruvannamalai Road, Viluppuram, Viluppuram, 606208"
POST OFFICE VARAGUR,12.1347371,79.0283576,"42MH+VFR, Mariyamman koil street, Varagur, Tamil Nadu 606753"
"Airtel Store, Shanmuga Communications",12.2339197,79.0691963,"89, 110, Big St, Pavazhakundur, Tiruvannamalai, Tamil Nadu 606601"
இந்தியா அஞ்சலகம் சோமாசிபாடி,12.2375573,79.1468541,"Somasipadi, Tiruvannamalai, NH-66, Tiruvannamalai, Tiruvannamalai, 606611"
Ramanathapuram Post Office,12.6442016,79.0967299,"J3VW+MRJ, Ramanathapuram, Tamil Nadu 606905"
Onnupuram Sub-Post Office,12.7203538,79.1818809,"1/63, veelear street, Onnupuram, Melnagar, Tamil Nadu 632315"
Gingee post office,12.2523637,79.4167516,"7C28+WRV, NH 66, Gingee, Tamil Nadu 604202"
Jamunamarathur Post Office,12.5974821,78.8885674,"HVWQ+XGX, Jawadhu Hills, Jamunamarathur, Tamil Nadu 635703"
kallarappadi post office,12.3645045,79.021337,"927C+RJ5, Tiruvannamalai, Tamil Nadu 606702"
POST OFFICE,12.3372183,79.0026906,"82P3+X9R, Melpadur, Tamil Nadu 606702"
Post Office,12.4977604,79.2540323,"F7X3+4P4, Sannathi St, Devikapuram, Tamil Nadu 606902"
India Post,12.5209921,79.1978966,"road street, Mandakolathur, Tamil Nadu 606904"
Osur Post office,12.4378627,79.6625333,"CMQ7+C29, Osur, Punnai, Tamil Nadu 604405"
Post Office,12.3787952,79.2289061,"96HH+GM8, Budhamangalam, Tamil Nadu 606902"
Erumbur Post Office,12.5369508,79.5304005,"GGPJ+Q7M, jain street erumbur village &post, 604404"
"Sub Post Office, Ariyalur",11.928061,78.9971584,"Ariyalur, Viluppuram, SH-68, Cuddalore Sankarapuram Road, Viluppuram, Villupuram, Tamil Nadu 605801"
Siva Sannidhi,12.2220751,79.0561661,"Manakkula Vinayagar Kovil Street, Chengam Road, near Sri Ramana Ashram post office, Tiruvannamalai, Tamil Nadu 606603"
Alathur Post Office,12.5842668,79.6828217,"HMMM+P65, Alathur, Tamil Nadu 604408"
Chengam Sub Division of Post,12.3101501,78.7897133,"8Q6R+322, Maruthi Nagar, Chengam, Tamil Nadu 606701"
Post office,12.4026911,79.0405255,"C23R+38F, Unnamed Road, Thenagaram, Tamil Nadu 606802"
Post Office,12.1678398,78.7203618,"5P9C+47J, Elangunni Rd, Puliyampatti, Tamil Nadu 606703"
Branch Post Office Tirupalapandal - கிளை தபால் நிலையம்,11.9409358,79.12536,"Tirupalapandal, Viluppuram, SH-68, Cuddalore Sankarapuram Road, Viluppuram, Viluppuram, 605766"
Esevai Maiyam Nallavan palayam,12.2030016,79.0450805,"POST OFFICE STREET, Tiruvannamalai, Nallavanpalayam, Tamil Nadu 606603"
Vembakkam POST OFFICE,12.7872623,79.5935492,"Arani, Pettai St, Vembakkam, Tamil Nadu 604410"
"Sub Post Office, Susainagar",12.5489614,79.2616214,"G7X6+HQJ, Arani - Devikapuram Rd, Pathiyavaram, Tamil Nadu 606902"
POST OFFICE,11.9554893,79.0900203,"post office, Madampoondi, Tamil Nadu 605766"
Post Office,12.4718312,79.4588562,"Post Office, Kadambai (BRANCH OFFICE), Vandavasi Taluk, Tiruvannamalai, Tamil Nadu (TN, Pin Code: 604502"
Head Post Office & IPPB,10.8012218,78.6889379,"RM2Q+GM5, Madurai Main Rd, near Anjaneya Temple, Melapudur, Sangillyandapuram, Tiruchirappalli, Tamil Nadu 620001"
Tiruchirappalli Cantonment Post Office,10.8098219,78.6821034,"Court, Bhima Nagar, Tiruchirappalli City, Tiruchirappalli, Tamil Nadu 620001"
Tiruchirappalli R.S. post office,10.7941416,78.6840358,"QMVM+MP4, Tiruchchirapalli Jct, Bharathiyar Salai, Sangillyandapuram, Tiruchirappalli, Tamil Nadu 620001"
Bheema Nagar Post Office,10.8062808,78.6878736,"R. Complex, S.A, Old Post Office Rd, Bhima Nagar, Sangillyandapuram, Tiruchirappalli, Tamil Nadu 620001"
Thillainagar Post Office,10.822281,78.6804643,"RMCJ+W79, 7th Cross St W, West Thillai Nagar, Thillai Nagar, Tiruchirappalli, Tamil Nadu 620018"
Teppakulam Main Post office,10.8264111,78.6927049,"RMGV+H59 Tiruchirappalli Town Hall Post office, W Blvd Rd, Tharanallur, Theppakulam, Tiruchirappalli, Tamil Nadu 620002"
Cantonment Post Office,10.7991898,78.6820744,"QMXJ+MWH, Rockins Rd, Cantonment, Tiruchirappalli, Tamil Nadu 620001"
Junction Road Post Office,10.796836,78.6820504,"QMWJ+PWP, Melapudur Main Rd, Melapudur, Sangillyandapuram, Tiruchirappalli, Tamil Nadu 620001"
Tiruchirappalli Town Hall Post office,10.8247284,78.6956487,"Old, Goodshed Road, Singarathope, Devathanam, Tiruchirappalli, Tamil Nadu 620008"
Indian Post,10.8076929,78.7006112,"RP52+39C, Annai Nagar, Kilapudur, Tiruchirappalli, Tamil Nadu 620001"
Woraiyur Post Office,10.821577,78.6736384,"No. 11, 13, Vivekananda St, Ramlinga Nagar, Woraiyur, Tiruchirappalli, Tamil Nadu 620003"
India Post,10.7924122,78.6895618,"QMRQ+XW8, Mannarpuram, Sengulum Colony, Ramakrishna Nagar, Sangillyandapuram, Tiruchirappalli, Tamil Nadu 620020"
Ponnagar Post office,10.7925867,78.6771272,"QMVG+2XM, Jaya Nagar Extension, Ponnagar Extension, Karumandapam, Tiruchirappalli, Tamil Nadu 620001"
Dheeran Nagar Post Office,10.7938818,78.6581491,"B66, Dheeran Nagar Rd, Dheeran Nagar, Karumandapam, Tiruchirappalli, Tamil Nadu 620001"
Crawford Colony,10.7822603,78.6757321,"QMJG+WC2, Madurai Main Rd, Bharathi Nagar, Crawford Colony, Edamalaipatti Pudur, Tiruchirappalli, Tamil Nadu 620012"
Post office,10.783856,78.7012784,"101, Sundarraj Nagar, Subramaniyapuram, Sangillyandapuram, Tiruchirappalli, Tamil Nadu 620001"
Post Office,10.7573418,78.6901442,"QM4R+W5M, Rajaram Rd, K K Nagar, Tiruchirappalli, Tamil Nadu 620021"
Tiruchirappalli Collectorate Post Office,10.8009178,78.6710847,"Bus Stop, Collector Office, Major Saravanan Rd, Raja Colony, Tiruchirappalli, Tamil Nadu 620001"
Post Office Thennur,10.8153262,78.6796868,"13/51, Anna Nagar, Tennur, Tiruchirappalli, Tamil Nadu 620026"
"SUB Post Office, JAMAL MOHAMED COLLEGE,",10.7881857,78.6955162,"QMQW+78F, Kajamalai Colony, Edamalaipatti Pudur, Tiruchirappalli, Tamil Nadu 620020"
Industrial Colony Sub Post Office,10.8096432,78.7209879,"RP5C+VG2, Malayappa Nagar, Tiruchirappalli, Tamil Nadu 620010"
Post Shoppe,10.800175,78.6875962,"116 A, Bharathiar Salai, Melapudur, Cantonment, Tiruchirappalli, Tamil Nadu 620001"
Golden Rock Post Office,10.7836748,78.7205975,"QPMC+F96, Railway Colony, Tiruchirappalli, Tamil Nadu 620004"
Woraiyur Bazaar Post Office,10.830041,78.6751713,"74, Panchavarna Swami Temple Street, Woraiyur, Tiruchirappalli, Tamil Nadu 620003"
Post Office,10.8127342,78.6369332,"No 23, Rajiv Gandhi Nagar, Kumaravayalur, Tiruchirappalli, Tamil Nadu 620102"
Bishop Heber College Post Office,10.8141466,78.6722039,"RM7C+MX5, Vayalur Rd, Puthur, Thillai Nagar, Tiruchirappalli, Tamil Nadu 620017"
post office,10.7846705,78.7374113,"QPMQ+V38, MK Kottai Rd, Mela Kalkamdar Kottai, Tiruchirappalli, Tamil Nadu 620011"
Puspanagar Postoffice,10.7995714,78.6964313,"QMXW+RMG, Bells Railway Colony, Sangillyandapuram, Tiruchirappalli, Tamil Nadu 620001"
Office of the Postmaster General,10.8014168,78.6891013,"Central Region(TN), 2nd Floor, Head Post office Complex, Tiruchirappalli, 620001"
Srirangam Post Office,10.8586611,78.689931,"291, Sathara St, Srirangam, Tiruchirappalli, Tamil Nadu 620006"
Post Office,10.7832442,78.7278132,"OLD D type Road 620004, Railway Colony, Tiruchirappalli, Tamil Nadu 620004"
Ambikapuram Post Office,10.8032886,78.7282722,"RP3H+8C7, Rajappa Nagar, Tiruchirappalli, Tamil Nadu 620004"
தபால் நிலையம் நீதிமன்ற வளாக கிளை,10.8095523,78.6830504,"RM5M+R8G, நீதிமன்ற வளாகம், Tiruchirappalli, Tamil Nadu 620001"
Edamalaipatti Pudur post office,10.7727291,78.6718665,"QMFC+X45, Edamalaipatti Rd, Arasu Colony, Puthur, Edamalaipatti Pudur, Tamil Nadu 620012"
24x7 RMS Speed Post Booking Counter,10.7953187,78.6838423,"QMWM+4JH, Railway Jct, Bharathiyar Salai, Sangillyandapuram, Tiruchirappalli, Tamil Nadu 620001"
Senthanneerpuram Post Office,10.7964441,78.7136655,"32, Kumaran Street, M.R Radha Colony, Senthaneerpuram, Ariyamangalam Area, Tiruchirappalli, Tamil Nadu 620004"
Pappakurichi Kattur Sub post Office,10.8001362,78.745963,"RP2W+3F5, Karappalayam - Kattur Rd, Vignesh Nagar, Sakthi Nagar, Tiruchirappalli, Tamil Nadu 620019"
Thiruvanaikovil Post Office,10.8498574,78.7035378,"1/158, Kondayam Pettai Agraharam, Rd, Srirangam, Thiruvanaikoil, Tamil Nadu 620006"
Indian Post,10.7995763,78.6963519,"QMXW+RMJ, Bells Railway Colony, Sangillyandapuram, Tiruchirappalli, Tamil Nadu 620001"
West Post Office,10.8626822,78.6875312,"VM7Q+34G, W Chitra St, Sriramapuram, Tiruchirappalli, Tamil Nadu 620006"
C sector Sub Post Office,10.7841005,78.7961709,"QQMW+JHW, CC to C3 & Kumaresapuram point road, C3 sector Quaters, Kailasapuram, Thiruverumbur, Tamil Nadu 620014"
POST OFFICE,10.8420836,78.6473498,"RJRX+R3J, maruthantakurichy, Tiruchirappalli, Tamil Nadu 620102"
I-look,10.823676,78.6959904,"No 1, Singarathope, Devathanam, Tiruchirappalli, Tamil Nadu 620008"
Khaja Nagar Post Office,10.7765607,78.6942765,"QMGV+JRF, Race Course Road, TVS Nagar, Tiruchirappalli, Tamil Nadu 620023"
Tiruchirappalli Fort Sub Post Office திருச்சிராப்பள்ளி கோட்டை துணை அஞ்சலகம்,10.8198322,78.6967397,"RM9W+WQQ, Tharanallur, Tiruchirappalli, Tamil Nadu 620002"
Golden Rock North D Post Office,10.7943085,78.7274895,"QPVH+P4C, Unnamed Road, Southern Railway Colony (EAST), Southern Railway Colony, Tiruchirappalli, Tamil Nadu 620004"
"Branch POST OFFICE, Pirattiyur.",10.793225,78.646691,"QJVW+7QX, North st, Pirattiyur, Tamil Nadu 620009"
Rock Fort Post Office,10.8271951,78.6976507,"RMGX+V5F, South St, Devathanam, Tiruchirappalli, Tamil Nadu 620002"
"Tiruvanaikoil Sub Post Office, Akilandeswari Nagar",10.8557835,78.7072484,"2/7, Akilandeswari Nagar 1st St, near sri arasu muthu mariamman thirukoil, Srirangam, Thiruvanaikoil, Tiruchirappalli, Tamil Nadu 620005"
Trichy Telegram Office,10.8270196,78.6944992,"RMGV+RW2, Nandhi Koil St, Theppakulam, Tiruchirappalli, Tamil Nadu 620002"
Post Office,10.7607298,78.8186377,"Shopping Complex, NIT, Tirchy, Tamil Nadu 620015"
Clock Tower Post office,10.8212077,78.6947386,"RMCW+F2J, Jaffersha St, Tharanallur, Tiruchirappalli, Tamil Nadu 620008"
NFPE Trichy,10.801172,78.6887731,"Head Post Office & IPPB, Melapudur, Sangillyandapuram, Tiruchirappalli, Tamil Nadu 620001"
Amma Mandapam Sub Post Office,10.8501644,78.6896029,"Yoga Kalyana Mahal, 48, Ammamandapam Rd, Sriramapuram, Tiruchirappalli, Tamil Nadu 620006"
Tiruchirappalli Airport Post Office,10.7625539,78.7071149,"Trichy Airport Cargo Terminal, Ramanathapuram Rd, K K Nagar, Tiruchirappalli, Tamil Nadu 620007"
Post Office,10.8490135,78.7415083,"RPXR+JP3, Srirangam, Tamil Nadu 620005"
Khajamalai colony sub post office,10.7774823,78.6861899,"QMGP+XHX, EB Colony Main Rd, Kajamalai Colony, Edamalaipatti Pudur, Tiruchirappalli, Tamil Nadu 620023"
Head Post Office,10.9101735,78.7001021,"WP62+356, Samayapuram sub street, Manachanallur, Tamil Nadu 621005"
Sirathoppu Post Office,10.837586,78.6354712,"RJQP+28J, Kulumani Main Rd, Sirathoppu, Tiruchirappalli, Tamil Nadu 620102"
OFT Post Office,10.7232034,78.7797522,"PQFJ+72M, 5th cross, Tamil Nadu 620016"
Aadhaar Enrolment & Updation Centre,10.8012649,78.6889519,"RM2Q+GM5, Madurai Main Rd, near Anjaneya Temple, Melapudur, Sangillyandapuram, Tiruchirappalli, Tamil Nadu 620001"
Speed Post Booking Centre Trichy Cantonment,10.7994357,78.6821503,"QMXJ+QXF, Rockins Rd, Melapudur, Cantonment, Tiruchirappalli, Tamil Nadu 620001"
India Post Office Vasantha Nagar,10.824726,78.6956483,"3/2, Townhall St, Singarathope, Tharanallur, Tiruchirappalli, Tamil Nadu 620002"
Mail Motor Service,10.8015173,78.6863914,"RM2P+JM3, Melapudur, Sangillyandapuram, Tiruchirappalli, Tamil Nadu 620001"
Boiler Project Post Office,10.7768032,78.7926982,"QQGV+P5H, BHEL Tiruchy Township, Kailasapuram, Thiruverumbur, Tamil Nadu 620014"
Tiruverumbur sub post office,10.7901404,78.7686113,"QQR9+3H2, Thendral Nager to D nagar Link, Dhenadayalu Nagar, Thiruverumbur, Tamil Nadu 620013"
India Post,10.8767317,78.7076265,"VPG5+M5V, Maruthi Nagar, Bikshandarkoil, Tamil Nadu 621216"
India Post,10.8741842,78.7199056,"VPFC+M3F, Thalakkudi, Tiruchirappalli, Tamil Nadu 621216"
New Post office,10.805979,78.699695,"2/2, keela street, peruvalanallur, lalgudi(tk, dt, Tiruchirappalli, Tamil Nadu 621712"
Post Office Manikandam,10.7236551,78.6300102,"PJFJ+F47, Mattapparai Patti, Tamil Nadu 620012"
Ramji nagar post office,10.777933,78.6364478,"QJHP+5MH, Ramaji Nagar Bus Stop, NH45, K.Kallikudy North, Tamil Nadu 620009"
"India Post, Koothur",10.8847085,78.713912,"VPM7+VMP, Unnamed Road, Koothur, Bikshandarkoil, Tamil Nadu 621216"
"Branch post office, Uyyakondan Thirumalai",10.8151251,78.6602228,"1190c, Vayalur Rd, MM Nagar, Tiruchirappalli, Sholanganallur, Tamil Nadu 620102"
India Post Office Thirumanthurai,10.8759233,78.7866209,"Thirumanthurai, Tiruchirappalli, NH-227, Trichy Road, Trichy, Tiruchirapalli, Tamil Nadu 621703"
Post Office Kilakurichy,10.7647291,78.7396195,"QP7Q+VXR, Nathamadipatti, Tiruchirappalli, Kilakurichy, Tamil Nadu 620011"
DHL Express (India) Pvt. Ltd,10.8048051,78.6860727,"Ground Floor, No. 2, Bharathidasan Salai, opposite American Hospital, Cantonment, Tiruchirappalli, Tamil Nadu 620001"
INDIA POST,10.70125,78.6218384,"PJ2C+GR5, Panchayath Office Road, Nagamangalam, Tiruchirappalli, Tamil Nadu 620012"
green nature,10.7904833,78.7043909,"QPR3+5VV Post office, Hanifa Colony, Sangillyandapuram, Tiruchirappalli, Tamil Nadu 621214"
First flight courier,10.8207714,78.6829803,"Bus Stop, 10th Cross, MS Mani Rd, Thillai Nagar East, Thillai Nagar, Tiruchirappalli, Tamil Nadu 620018"
Alagar nagar post office,10.8156022,78.6514299,"RM82+6MW, Rettai Vaikal, Ram Nagar, Vasan City, Sholanganallur, Tamil Nadu 620017"
INAMPULIYUR POST OFFICE,10.808479,78.5641665,"Ettarai, kelakattu, Tiruchirappalli, Tamil Nadu 639103"
Kambarasampettai Post Office,10.8513375,78.6740778,"VM2F+GPQ, Tiruchirappalli, Tamil Nadu 620101"
Thuvakudimalai sub post office,10.7685143,78.8019392,"QR92+CV5, A.V, Thuvkudimalai, Tamil Nadu 620022"
Passport Office,10.8228047,78.682588,"2nd floor, Corporation commercial complex, 7th Cross St W, West Thillai Nagar, Tiruchirappalli, Tamil Nadu 620018"
Navalurkottapattu Post Office,10.7598125,78.6002653,"QJ52+W6F, Navalurkottapattu, Tamil Nadu 620009"
India Post Office Sirugambur,10.9033436,78.6064297,"WJ34+8MP, Trichy - Namakkal Rd, Tiruchirappalli, Sirukambur, Tamil Nadu 621213"
Teppakulam Post Box,10.8295968,78.6938803,"87A, Teppakulam Post, In Mayavaram Lodge, Tiruchirappalli, 620002"
Singarathorpe Post Office,10.8263909,78.6926784,"41326, Madurai Rd, Tharanallur, Tiruchirappalli, Tamil Nadu 620002"
GPO Lucknow,26.8446525,80.9454302,"8, Vidhan Sabha Marg, Narpatkhera, Raj Bhavan Colony, Hazratganj, Lucknow, Uttar Pradesh 226001"
Code Secure India Private Limited,26.8770698,80.9936893,"A / 1089-11, Sector 5, Block D, Indira Nagar, Lucknow, Uttar Pradesh 226016"
ڈاک خانہ Post Office,26.8494812,80.9413031,"Basant Building, near Vijaya Bank, Sushanpura, Nagar Nigam Market, Lalbagh, Lucknow, Uttar Pradesh 226001"
INDIAN POST OFFICE,26.8559729,80.9533717,"VX43+9FJ, Gokhale Vihar, Butler Colony, Lucknow, Uttar Pradesh 226001"
Sarojini Nagar Post Office,26.7475442,80.8637071,"PVX7+2H9, Sarojini Nagar, Lucknow, Uttar Pradesh 226008"
Rajendra Nagar Post Office,26.8427755,80.9164464,"135, 7th St, Rajendra Nagar, Lucknow, Uttar Pradesh 226004"
Vikas Nagar Post Office,26.8932438,80.9667464,"606, सेक्टर 2, Sector 2, Vikas Nagar, Lucknow, Uttar Pradesh 226022"
"Sub Post Office, IIM Lucknow",26.9370759,80.9044726,"WWP3+RWJ, Prabandh Nagar, Mubarakpur, Lucknow, Uttar Pradesh 226201"
Chowk Head Post Office,26.8685379,80.9076633,"VW95+C58, Lalji Tondan Marg, Machchhi Bhavan, Lucknow, Uttar Pradesh 226003"
Post Office Vibhuti Khand,26.8672319,81.0025573,"V283+V4W, Mandi Parishad Rd, Vibhuti Khand, Gomti Nagar, Lucknow, Uttar Pradesh 226010"
Aliganj Sub Post Office,26.8845052,80.9364951,"VWMP+RP2, Aliganj Main Road, near 8 Crossing, Sector C, Lucknow, Uttar Pradesh 226024"
Nirala Nagar Post Office,26.8794969,80.9351551,"VWHP+Q5V, Nirala Nagar Railway Crossing Rd, Nirala Nagar, Lucknow, Uttar Pradesh 226020"
Mahanagar Post Office,26.8734895,80.9592827,"VXF5+9RW, Near Police Officer Thana, Mahanagar, Lucknow, Uttar Pradesh 226006"
Sub Post Office Maharishi Vidya Mandir IIM Road Lucknow,26.9306958,80.9291131,"WWJH+7QC, Diguria, Aziz Nagar, Madiyanva, Lucknow, Uttar Pradesh 226020"
naubasta post office Lucknow,26.8553665,80.8984403,"naubasta, Deen Dayal Rd, Turiya Ganj, Asharfabad, Lucknow, Uttar Pradesh 226003"
Post office,26.8405016,80.8826677,"RVRM+654, Kothari Bandhu Rd, Block E, Rajajipuram, Lucknow, Uttar Pradesh 226017"
"O/o Chief Post Master General, Luknow Uttar Pradesh Circle",26.851743,80.9400076,"VW2R+M4V, Hazratganj, Lucknow, Uttar Pradesh 226001"
"Post Office, Sector 18",26.883063,80.9893719,"18/573, Sect C, Block C, Indira Nagar, Lucknow, Uttar Pradesh 226016"
Singar Nagar Post Office,26.8042666,80.8918237,"RV3R+PR5, Singar Nagar, Alambagh, Lucknow, Uttar Pradesh 226005"
POST OFFICE,26.823644,80.9183351,"RWF9+FC5, Anand Nagar, Alambagh, Lucknow, Uttar Pradesh 226005"
Alambagh Post Office,26.8133147,80.9045367,"RW73+8WG, SBI Rd, Chander Nagar, Alambagh, Lucknow, Uttar Pradesh 226005"
Post Office Maunda Lucknow,26.8033383,80.8227556,"RR3F+86M, Pyare Pur, Maunda, Uttar Pradesh 226009"
Jankipuram Sub Post office,26.9062815,80.9481474,"Sector B Main Rd, Sector B, Jankipuram, Lucknow, Uttar Pradesh 226021"
Post Office,26.8803596,80.9553696,"VXJ4+47R, H Rd, Sector-C, Mahanagar, Lucknow, Uttar Pradesh 226006"
Sub Post Office,26.8893109,81.0021357,"Sector 14, Indira Nagar, Lucknow, Uttar Pradesh 226016"
New Hyderabad Post Office,26.8659314,80.9509021,"VX82+9FF, Dr Baijnath Rd, Balda Colony, New Hyderabad, Hasanganj, Lucknow, Uttar Pradesh 226007"
Dilkusha Post Office,26.818114,80.9489334,"Dilkhusha Post Office, Post Office Rd, Neil Lines, Cantonment, Lucknow, Uttar Pradesh 226002"
"SDVP POSTOFFICE, GUDAMBA, KURSI RD, LUCKNOW - 226026",26.9302209,80.9825731,"WXJM+34Q, Guramba, Uttar Pradesh 226026"
India Post Post Office,26.8655037,80.9511685,"VX82+6H4, Balda Colony, Kala Kankar Colony, New Hyderabad, Hasanganj, Lucknow, Uttar Pradesh 226007"
LDA Colony Sub Post Office,26.7907803,80.8911066,"QVRR+8H6, Kanpur Rd, Hind Nagar, Sector G, LDA Colony, Lucknow, Uttar Pradesh 226012"
Indian Post Office,26.7404341,80.8580383,"PVR5+58G, Gaori Bazar, Kanpur - Lucknow Rd, Sarojini Nagar, Lucknow, Uttar Pradesh 226008"
India post,26.8578105,80.9257844,"VW5G+4CG, Chamber - Sadar Tensil, Kaiserbagh, Qaisar Bagh, Lucknow, Uttar Pradesh 226001"
Manas nagar Post office,26.7876796,80.8837972,"186, near Red Rose School, Vishnulok Colony, Manas Nagar, Krishna Nagar, Alambagh, Lucknow, Uttar Pradesh 226023"
India Post,26.7953392,80.9104792,"QWW6+48J, Ashiana S.O (Sub Office) ,Lucknow Division, Ashiana Chauraha, Lucknow, Uttar Pradesh 226012"
Barha Post Office,26.8158323,80.9157282,"554/664, 554/664, Chota, Barha, Alambagh, Lucknow, Uttar Pradesh 226005"
Gomtinagar Post Office,26.8562029,81.0044959,"E-1/743, Vinay Khand 1, Gomti Nagar, Lucknow, Uttar Pradesh 226010"
Ambedkar University Post Office,26.7644666,80.9267736,"QW7G+QRM, Babasaheb Bhim Rao Ambedkar University, Lucknow, Uttar Pradesh 226025"
Post Office,26.8398445,80.9036463,"Aishbagh, New Labour Colony, near PTC, Malviya Nagar, Aishbagh, Lucknow, Uttar Pradesh 226004"
"Post Office, Kalyanpur",26.8977985,80.9703032,"VXXC+468, Adarsh Nagar, Kalyanpur (East), Lucknow, Uttar Pradesh 226022"
India Post Office,26.8515775,80.9882026,"VX2Q+J9Q, Gomti Nagar Bypass Rd, Vishal Khand - 4, Vishal Khand 1, Vishal Khand, Gomti Nagar, Lucknow, Uttar Pradesh 226010"
post office,26.7933517,81.0057737,"Q2V4+8CV Ansal API, Shopping Square Rd, Golf City, Bagiamau, Lucknow, Uttar Pradesh 226002"
Post Office High Court Bench,26.8733002,81.0117222,"V2F6+8RC, Vibhuti Khand, Gomti Nagar, Lucknow, Uttar Pradesh 226010"
Naka Hindola Post Office,26.8373008,80.9228821,"RWPF+W7F, Gurudwara Rd, Devendpuri, Naka Hindola, Lucknow, Uttar Pradesh 226018"
Daliganj Post-Office,26.8712634,80.9296587,"499/274, Kutubpur, Hasanganj, Lucknow, Uttar Pradesh 226007"
Indian Post,26.8861705,80.9949388,"Shop No. 139, Sukh Complex, Munshi Pulia, Crossing, Indira Nagar, Lucknow, Uttar Pradesh 226016"
"POSTAL AND TELECOM COLONY, POST OFFICE COLONY ALIGANJ LUCKNOW",26.8980377,80.9426476,"VWXV+657, Sector-A, Sector K, Aliganj, Lucknow, Uttar Pradesh 226024"
Aashiyaana Post Office,26.79572,80.9106222,"QWW6+79J, Kanpur Rd, Sector H, LDA Colony, Lucknow, Uttar Pradesh 226012"
HAL Post Office,26.8719358,80.9826779,"Sub Post office H.A.L., H.A.L. Colony, Lucknow, Uttar Pradesh 226016"
India Post Office,26.83252,80.9125524,"Blind Square, National Highway 25, Blunt Square, Mawaiyya, Charbagh, Lucknow, Uttar Pradesh 226004"
"Post Office, Vrindavan",26.7812988,80.9582529,"6c/400G, Yojna-1, Gopeshkunj, Sector 6C, Vrindavan Vrindavan Yojna-1, Gopeshkunj, Sector 6C, Vrindavan Colony, 226002, Gopeshkunj, Sector 6C, Vrindavan Colony, Lucknow, Uttar Pradesh 226029"
Post Office Colony,26.839501,80.8826444,"RVQM+R53, Block C, Rajajipuram, Lucknow, Uttar Pradesh 226017"
Surendra Nagar Post Office,26.8750354,81.0114352,"V2G6+2M8, Surender Nagar, Ismailganj, Indira Nagar, Lucknow, Uttar Pradesh 226028"
Bhartiya Post Office,26.868517,80.8802644,"Nishad Raj Marg, Balaganj GKO, Ambadkar Park, Mari Mata Mandir Rd, Thakurganj, Azad Nagar, Lucknow, Uttar Pradesh 226003"
"Sub Post Office, Vishwas Khand",26.862637,80.9907559,"1/152, Vishwas Khand, Gomti Nagar, Lucknow, Uttar Pradesh 226010"
M.N.COLONY SUB POST OFFICE,26.8796038,80.9640663,"14, Mahanagar, Lucknow, Uttar Pradesh 226006"
"Post Office, Mill Road",26.8353169,80.9036934,"RWP3+4HH, Mill Rd, Talkatora, Lucknow, Uttar Pradesh 226004"
Chandganj Post Office,26.8795724,80.9424987,"531/16CH, Chandralok, Lucknow, Uttar Pradesh 226024"
Post Office Amausi Airport,26.7642541,80.8853898,"QV7P+P73, Amausi, Lucknow, Uttar Pradesh 226008"
"Post Office, Pawanpuri",26.8144418,80.9123583,"RW77+Q3C, Alambagh Marg, Om Nagar, Barha, Alambagh, Lucknow, Uttar Pradesh 226005"
Post Office,26.832251,80.9410965,"RWJR+WH2, Babu Banarsi Nagar,Cantt., Lucknow, Uttar Pradesh 226001"
India Post - Jankipuram Extension,26.9445734,80.9387266,"Dr. A.P.J.Abdul Kalam Technical University, Sector 11, Jankipuram Vistar, Lucknow, Uttar Pradesh 226021"
Railway Post Office,26.8313614,80.9253611,"RWJG+G7R, Preeti Nagar, Railway Colony, Charbagh, Lucknow, Uttar Pradesh 226001"
CIMAP Post Office(226015),26.8950712,80.9834084,"VXWM+2FG, Chandanapur, Indira Nagar, Lucknow, Uttar Pradesh 226016"
Post Office Arjunganj,26.8045381,80.9975096,"RX3X+R47, sarsawa, Arjunganj, Lucknow, Uttar Pradesh 226002"
Narayan Nagar Post Office,26.866055,80.9780881,"539-KA/206, Indrapuri, Rabindra Palli Colony, Lucknow, Uttar Pradesh 226016"
Post Office,26.8773779,80.9061683,"VWG4+XH4, Husainabad, Lucknow, Uttar Pradesh 226003"
RDSO Post Office,26.8171616,80.892039,"RV8R+VW8, Ramprasadkhera, Alambagh, Lucknow, Uttar Pradesh 226011"
Victoria Ganj Post Office,26.853494,80.9028434,"VW33+96X, Turiya Ganj, Tulsidas Marg, Lucknow, Uttar Pradesh 226004"
HARI NAGAR POST OFFICE,26.8664606,80.9782218,"Indrapuri, Rabindra Palli Colony, Lucknow, Uttar Pradesh 226016"
India Post,26.8451571,80.9638578,"C-257, Nirala Nagar,new P.O Building, New Colony, Jiamau, Lucknow, Uttar Pradesh 226020"
IndiaPost Manak Nagar,26.8168955,80.8925446,"RV8V+Q44, RDSO, Manak Nagar, Lucknow, Uttar Pradesh 226011"
post office,26.9313253,80.9522839,"WXJ3+G2P, Janki Vihar Colony, Madiyaon, Lucknow, Uttar Pradesh 226021"
I Area Post Office,26.770189,80.8783174,"QVCH+3CH, Sarojini Nagar, Badali Kheda, Amausi, Lucknow, Uttar Pradesh 226008"
"Post Office, Amberganj",26.8655704,80.8919698,"VV8R+6WC, Gandhi Peer Kha, Devidas Marg, Basant Vihar Colony, Lucknow, Uttar Pradesh 226003"
Post Office,26.8810539,80.9721758,"VXJC+CXG, Liberty Colony Park, Sarvodaya Nagar, Indira Nagar, Lucknow, Uttar Pradesh 226016"
Kharika Branch Post office,26.7905348,80.9559762,"QXR4+6G6, Telibagh, Lucknow, Uttar Pradesh 226002"
Post office Kendriya Vidyalaya,26.9002891,80.9497295,"WX22+426, Sitapur Rd, Sector-A, Sector O, Aliganj, Lucknow, Uttar Pradesh 226024"
Post office Canal colony,26.8345449,80.9401238,"44, Cantonment Rd, Murli Nagar, Husainganj, Lucknow, Uttar Pradesh 226001"
Sadar Bazar Post Office,26.8305557,80.940073,"Cantonment Rd, Sadar Bazaar, Khatkeyana, Lucknow, Uttar Pradesh 226002"
Golaganj post office,26.8535151,80.9260061,"164/4, Kallan Ki Lat, Aminabad, Maulviganj, Aminabad, Lucknow, Uttar Pradesh 226010"
Nadan Mahal Post Office,26.8535267,80.9118617,"VW36+CV6, Ahiyaganj Market, Khajuha, Kundari Rakabganj, Lucknow, Uttar Pradesh 226004"
Post office,26.8854764,80.9585919,"VXP5+2F2, Dandiya Bazar, Aliganj, Lucknow, Uttar Pradesh 226024"
post office,26.8814617,80.9146968,"VWJ7+HXQ, Khadra, Hasanganj, Lucknow, Uttar Pradesh 226020"
Ganeshganj Post Office,26.8436234,80.9229996,"137/06, Khurshed Bagh, Ganeshganj, Raniganj, Aminabad, Lucknow, Uttar Pradesh 226018"
Sub Post Office,26.8527474,80.9828516,"VX3M+37R, Vishal Khand Rd, Ghanshahida Ujriyaon, Vishal Khand, Gomti Nagar, Lucknow, Uttar Pradesh 226010"
Branch Post Office - 226101,26.8951689,80.8523952,"VVW3+337, Barawan Kalan, Lucknow, Uttar Pradesh 226101"
Post office Medical College Lucknow,26.8684262,80.9145911,"410/100, Chowk, Lucknow, Uttar Pradesh 226003"
Wazirganj Post Office,26.8507437,80.92499,"VW2G+74R, Gwynne Rd, near Maized, Kesar Bagh, Maulviganj, Aminabad, Lucknow, Uttar Pradesh 226018"
Yahiyaganj Post office,26.8550684,80.9154135,"VW48+27C, Subhash Marg, Mashak Ganj, Yahiyaganj, Lucknow, Uttar Pradesh 226003"
Ghaila post office,26.8993404,80.9200146,"VWXC+P4M, Ghaila Rd, Keshav Nagar 2, Fazullaganj, Lucknow, Uttar Pradesh 226020"
Post office,26.882876,80.9565122,"C-14, Vigyanpuri Colony, Dandiya Bazar, Lucknow, Uttar Pradesh 226006"
"32 battalion pac post office,226023",26.7827863,80.8810667,"32 battalion, Subhash Nagar, Transport Nagar, Lucknow, Uttar Pradesh 226023"
COTTON MILL SUB POST OFFICE,26.8364914,80.8905406,"RVPR+H8W COTTON MILL, Rajajipuram, Lucknow, Uttar Pradesh 226017"
Saadatganj Post Office,26.854263,80.8850351,"VV3P+P44, Samrahi Rd, Saadatganj, Lucknow, Uttar Pradesh 226003"
Gazipur Sub-Post Office,26.8740527,80.9929612,"D-28, Block D, Indira Nagar, Lucknow, Uttar Pradesh 226016"
Post Office Wazirganj,26.8556675,80.9218018,"VW4C+7R8, Lakshmanprasad Srivastava Rd, Maulviganj, Wazirganj, Lucknow, Uttar Pradesh 226018"
Post Office Amraigaon.,26.9124051,81.0221503,"W26C+XX5, Indira Nagar, Lucknow, Uttar Pradesh 226028"
S s pco,26.8468849,80.8786143,"E-4034, Rajajipuram, Lucknow, Uttar Pradesh 226017"
Bijnor Road Post Office,26.7412379,80.9051211,"PWR4+F5R, Bijnor, Uttar Pradesh 226301"
Amausi Post Office,26.7628074,80.8451284,"QR7V+2X3, Hidu Khera, Lucknow, Uttar Pradesh 226008"
Post office,26.7847627,80.9643141,"Nilmatha, Lucknow, Uttar Pradesh 226002"
Post office Qaisar Bag,26.8533238,80.9261249,"12, Jagat Narayan Rd, Golaganj, Maulviganj, Wazirganj, Lucknow, Uttar Pradesh 226018"
UP Postal Bank,26.84767,80.9383984,"RWXQ+3F7, Dhayanidhan Park Rd, near Lalbagh Girls Inter Colleges, Kaiserbagh Officer's Colony, Lalbagh, Lucknow, Uttar Pradesh 226001"
Malesemau Post Office Gomti Nagar Extension,26.8318425,81.0172101,"R2J8+PXQ, Sector 6, Gomti Nagar, Lucknow, Uttar Pradesh 226010"
Post Office Barauna,26.7608156,81.0150635,"Q268+84H, Golf City, Barauna, Uttar Pradesh 226002"
Kalyanpur New Post Office,26.9100008,80.9743982,"28, Kanchan Nagar, Raj Vihar, Kalyanpur (West), Lucknow, Uttar Pradesh 226022"
Post Office Malesemau,26.8289276,81.0138979,"R2H7+HMJ, Sector 6, Gomti Nagar, Lucknow, Malesemau, Uttar Pradesh 226010"
Sarrinadu post office,26.8913524,80.8650496,"VVR8+C3W, NH 230, Husainabad, Lucknow, Uttar Pradesh 226003"
Post Office,26.7400129,80.8153508,"PRR8+272, Piparsand, Uttar Pradesh 226008"
Sgpgi S.O,26.7443783,80.938702,"PWVQ+QH5, Sanjay Gandhi Postgraduate Institute of Medical Sciences, Lucknow, Uttar Pradesh 226014"
Post office,26.8604739,81.0450604,"V26W+54P, Awadh Vihar Colony, Ashraf Vihar Colony, Gomti Nagar, Nijampur Malhaur, Lucknow, Uttar Pradesh 226028"
General Post Office - Abids-Hyderabad,17.3882084,78.4761662,"Abids Road, Troop Bazaar, Koti, Hyderabad, Telangana 500001"
India Post Office,17.3740624,78.4694785,"post offfice, Fish Market, Begum Bazar, Afzal Gunj, Begambazer, Hyderabad, Telangana 500012"
Himayathnagar Post Office,17.402273,78.4865551,"CF2P+WP4, Himayatnagar, Hyderabad, Telangana 500029"
India Post,17.4930267,78.4087392,"FCV5+6J6, Vivekanandanagar Main Rd, Vivekananda Nagar, Kukatpally, Hyderabad, Telangana 500072"
Somajiguda Post Office,17.4190467,78.4559244,"Jalas Soudha, Irram Manzil Colony, Somajiguda, Hyderabad, Telangana 500082"
India Post Office - Vengalrao Nagar,17.4412415,78.4405278,"8-3-191, 27/13, Vengal Rao Nagar Rd, Mothi Nagar, Vengal Rao Nagar, Sanjeeva Reddy Nagar, Hyderabad, Telangana 500038"
India Post,17.4201696,78.4483867,"CCCX+3F7, Rd Number 1, Banjara Hills, Hyderabad, Telangana 500034"
India Post,17.3819485,78.4069351,"9CJ4+QVG, Fort Rd, Near Mirza Palace function hall, Khair Complex, Golconda Fort, Hyderabad, Telangana 500008"
Gachibowli Sub Post Office,17.4390936,78.3582795,"G.P.R.A Campus, Qtr No-12A, Taluk, Gachibowli, Serilingampalle (M), Telangana 500032"
Gandhi Bhavan Sub Post Office,17.3886314,78.4704894,"170, NH65 Bhagya Nagar Society Colony, Nampally Hyderabad, Telangana 500457, NH 65, Patel Nagar, Bhagya Nagar Society Colony, Nampally, Hyderabad, Telangana 500457"
Gandhinagar Post Office,17.419373,78.4909663,"CF9R+PFX, Gandhinagar Main Road, Solitier Residency, Bhagyalaxmi Nagar, Kavadiguda, Hyderabad, Telangana 500080"
India Post,17.4293948,78.3617852,"Telecom Nagar Extension, Gachibowli, Hyderabad, Telangana 500032"
India Post - Humayunnagar S.O,17.3992939,78.4482106,"10-4-4, Masab Tank Road, near MIM Party Office, Humayun Nagar, Hyderabad, Telangana 500028"
India post - post office,17.3421305,78.554316,"8HR3+VR5, Raghavendra Nagar Colony, L. B. Nagar, Hyderabad, Telangana 500074"
India Post,17.3991102,78.4117158,"8-1-21-37, Street Number 4, Surya Nagar, Toli Chowki, Hyderabad, Telangana 500008"
India Post - S R Nagar Post Office,17.4374793,78.4439047,"6-12-088, Kumar Basti, Srinivasa Nagar, Sanjeeva Reddy Nagar, Hyderabad, Telangana 500038"
"Cyberabad Sub Post office ,India Post, Cyberabad",17.4417861,78.3908065,"Uma Enclave, 1-98/90/25, Madhapur, Telangana 500081"
secunderabad post office,17.4412637,78.4949408,"CFRW+G35, Rashtrapati Rd, Krishna Complex, Kalasiguda, Secunderabad, Telangana 500003"
Post Office Ramakrishnapuram,17.367175,78.5512269,"9H82+VJC, RK Puram Rd Number 6, Ramakrishnapuram, Kothapet, Hyderabad, Telangana 500102"
Post Office,17.4206753,78.5250556,"CGCG+74G, Osmania University, Amberpet, Secunderabad, Hyderabad, Telangana 500007"
Vijaya Nagar Colony Post Office,17.3946286,78.4515831,"226/2-T, Vijay Nagar Colony Rd, Vijaynagar Colony, APHB Colony, Vijaya Nagar Colony, Hyderabad, Telangana 500057"
Dilsuknagar Post Office,17.3682681,78.5290574,"Annapurna Complex, Vijaya Residency, Kamala Nagar, Dilsukhnagar, Hyderabad, Telangana 500060"
India Post,17.3752348,78.4925329,"9FGV+34W, Malakpet Station Rd, Musi Nagar, Malakpet, Hyderabad, Telangana 500024"
INDIA POST charminar HO,17.368631,78.4774593,"22-7-283, Dewan Devdi, Chatta Bazaar, Pathar Gatti, Hyderabad, Telangana 500002"
Post Office,17.3224159,78.3997813,"8CC2+X28, Hanuman Nagar, Rajendranagar mandal, Hyderabad, Telangana 500030"
Yousufguda Sub Post Office,17.4413959,78.4243575,"CCRF+HV2, Rahmat Nagar, Yousufguda, Hyderabad, Telangana 500045"
Hyderguda Post Office,17.3619358,78.4270072,"2, Inner Ring Rd, Siva Nagar, Upperpally, Telangana 500048"
Falaknuma Sub Post Office,17.3366878,78.4686216,"Ghulam Murtuza Colony, Falaknuma, Hyderabad, Telangana 500053"
India Post Shah Ali Banda,17.3501348,78.472219,"9F2F+322, Falaknuma Rd, Aliabad North, Lal Darwaza, Hyderabad, Telangana 500065"
Post Office Begumpet,17.4393102,78.4574944,"CFQ5+P4C, taluk, below Flyover, Brahman Wadi, Begumpet, Secunderabad, Hyderabad, Telangana 500016"
Post Office Sanathnagar,17.458969,78.4431044,"FC5V+H9J, Sanath Nagar Main Rd, near Dena Bank, Industrial Estate, Sanath Nagar IE, Sanath Nagar, Hyderabad, Telangana 500018"
Barkatpura Post Office,17.3955845,78.4942179,"ARK Nivas, 10, Lane Number 3, Chitrapuri Colony, Barkatpura, Narayanguda, Hyderabad, Telangana 500027"
India Post,17.4552332,78.3254199,"F84G+37W, Hyderabad Central University Rd, CUC, Gachibowli, Serilingampalle (M), Hyderabad, Telangana 500046"
ECIL Sub Post office,17.4657798,78.5703809,"FH8C+877, D-Sector, DAE Housing Colony, Moula Ali, Secunderabad, Telangana 500062"
India Post,17.3668697,78.5364747,"Road No-5, Lane, next to More Super market, Saroornagar, HUDA Complex, Telangana 500035"
Kachiguda Post Office,17.3899648,78.499087,"9FQX+XPQ, Kachiguda Station Rd, near Railway Station, RTC Colony, Kachiguda, Hyderabad, Telangana 500027"
Vidyanagar Post Office,17.4075397,78.5106081,"1-9-281/7/A, near Ramnagar Gundu, Vidya Nagar, Adikmet, Hyderabad, Telangana 500044"
India Post,17.3211755,78.5693814,"279, Prasanth Residency, Vanasthalipuram Road, Opp Sri Indu PG College, Hyderabad, Telangana 500070"
National enterprises,17.478362,78.5144096,"lalbazar St, Ward No 7 Secunderabad, Lal Bazaar, Tirumalagiri, Hyderabad, Secunderabad, Telangana 500015"
Narayanguda Post Office,17.3953886,78.4856793,"BUILDING, 3-5-300, TSCO, Narayanguda Main Rd, Vittalwadi, Narayanguda, Hyderabad, Telangana 500029"
Uppal Head Post Office - India Post,17.402818,78.5611537,"Beerappagadda Rd, near Monday Market, Beerappagadda, Uppal, Hyderabad, Telangana 500039"
EMS Speed Post,17.4481411,78.471749,"CFXC+7R2, Begumpet Airport Road, Hyderabad, Telangana 500016"
KPHB Colony Sub Post Office,17.4927,78.396054,"891, Road No. 5, Dharma Reddy Colony Phase I, LIG, Kukatpally Housing Board Colony, Kukatpally, Hyderabad, Telangana 500072"
Musheerabad post office,17.422477,78.5057816,"6/1/103/97, Bapuji Nagar, MIGH Colony, Walker Town, Padmarao Nagar, Secunderabad, Hyderabad, Telangana 500020"
Miyapur India Post,17.498476,78.3573662,"1-301, Balaji Nagar, Miyapur, Hyderabad, Telangana 500049"
Shantinagar Colony Post Office,17.4013545,78.4555008,"CF24+G8V, Shantinagar Colony, Masab Tank, Hyderabad, Telangana 500457"
India Post,17.4229912,78.5454248,"Floor 1, Naga Nivas Bldg, 1-14, Nacharam - Mallapur Rd, Snehapuri Colony, HMT Nagar, Hyderabad, Telangana 500076"
Balanagar Township Sub Post Office,17.4911002,78.4398582,"No. E27, Quater, Jeedimetla Main Road, near IDPL, IDPL Colony, Balanagar, Hyderabad, Telangana 500037"
P and T Colony Post Office,17.3629624,78.5268705,"14-91, New Post Office Rd, Vivekananda Nagar, Dilsukhnagar, Hyderabad, Telangana 500060"
Prakash Nagar Post Office,17.4413723,78.4688562,"CFR9+GMR, Prakash Nagar, Begumpet, Hyderabad, Telangana 500016"
New Nallakunta Post Office,17.3976407,78.5093117,"Ramalayam St, Prashanti Nagar, New Nallakunta, Hyderabad, Telangana 500044"
Charminar Post Office,17.3563414,78.4676819,"9F49+G5P, Amir-E-Kabir St, Shah Gunj, Charminar, Hyderabad, Telangana 500065"
Public School Post Office,17.3968371,78.5361381,"9GWP+PHM, Amberpet Main Rd, Sarada Nagar, Ramanthapur, Hyderabad, Telangana 500013"
Amberpet Post Office,17.3922102,78.5193214,"2-3-426/A, NH163, Poornodhaya Colony, MCH Quarters, Amberpet, Hyderabad, Telangana 500013"
Kothaguda Sub Post Office - 500084,17.4715432,78.3628405,"HNo 1-111/1/B-182, Ground Floor, Sri Bommera Residency Raghavendra Swamy Temple Lane, Post, opp. Lane to RTO Office, Kothaguda, Hyderabad, Telangana 500084"
Anand Nagar Post Office,17.4103816,78.4544461,"6-3-609/195, Anand Nagar Colony Rd, Anand Nagar Colony, Khairtabad, Hyderabad, Telangana 500004"
Bowenpally Sub Post Office,17.4662647,78.4725499,"FF8G+V4R Ground, Beside Cantonment, New Bowenpally, Bowenpally, Secunderabad, Telangana 500011"
Indian Post Office,17.3108516,78.4383573,"8C6Q+8FR, Telangana NGOS Colony, Katedan Industrial Area, taluk, Rajendranagar mandal, Hyderabad, Telangana 500077"
Manikonda Sub Post Office,17.402117,78.3769095,"C92G+RVW, Manikonda Garden, Sri Balaji Nagar Colony, Hyderabad, Telangana 500089"
Malakpet Colony Sub Post Office,17.3710432,78.509693,"MS 33, MS 34,Lane Government Quarters opp. to Honda Showroom Malakpet, taluk, Saidabad, Hyderabad, Telangana 500036"
Chief Post Master General,17.3877487,78.4755637,"5-4-4, JN Road, Old Kattal Mandi, Abids, Hyderabad, Telangana 500001"
Post Office - Vanastalipuram,17.3329034,78.569294,"A-375, Prashanth Nagar, Vanasthalipuram, Hyderabad, Telangana 500070"
Sakkubai Nagar Post Office,17.4059534,78.3956736,"Sai Baba Temple Rd, Maruti Colony, Shaikpet, Hyderabad, Telangana 500008"
Fire Station IICT Post Office,17.4224169,78.5382153,"CGCQ+X99, IICT Campus, Inner Ring Rd, IICT & IICT Colony, IICT Colony, Tarnaka, Secunderabad, Telangana 500007"
Nehrunagar Post Office,17.448369,78.5076546,"N.o.10-1-5/12/A, Near Kasturba Gandhi Degree College, West Marredpally, Hyderabad, Telangana 500026"
Post Office,17.3457176,78.5519479,"Range Reddy District Court Bldg Complex, at, L. B. Nagar, Telangana 500074"
Karwan Sahu Post Office,17.3693644,78.4569534,"9F94+PVX, Puranapul, Karwan Rd, Ziaguda, Hyderabad, Telangana 500006"
Post Office ( Jillelaguda ),17.3311009,78.5260329,"2-5, Jillelaguda Rd, Kala Nagar, New Vivek Nagar Colony, Jillalguda, Hyderabad, Telangana 500097"
Lunger House Sub Post Office,17.3759472,78.4199274,"9CGC+93G, Langar Houz, Hyderabad, Telangana 500008"
Padmarao Nagar Post Office,17.4225059,78.5056889,"6/1/103/97, Bapuji Nagar, MIGH Colony, Walker Town, Padmarao Nagar, Secunderabad, Hyderabad, Telangana 500025"
Srinagar Colony Post Office,17.4316558,78.4464585,"1st Floor, beside Image Hospital, Pratap Nagar, Nagarjuna Nagar, Ameerpet, Hyderabad, Telangana 500073"
BHEL MIG Post office,17.4823983,78.3020702,"1423, BHEL MIG Rd, MIG Colony, MIG Phase I, Lingampally, Bharat Heavy Electricals Limited, Hyderabad, Serilingampalle (M), Telangana 502032"
Khairatabad Head Post Office,17.4068465,78.4621026,"1, Lakdikapul Rd, Taj Enclave, Khairtabad, Hyderabad, Telangana 500004"
Saroornagar Sub Post Office,17.3668432,78.5363976,"23-129- 1-A Tyagaraya Nagar Colony, Kothapet, Saroornagar, Sri Sai Shivani Complex, Kamala Nagar, Telangana 500035"
Post Office LIC Division,17.4073295,78.4708746,"CF4C+WFJ, near LIC Divison, Ambedkar Colony, Khairtabad, Hyderabad, Telangana 500063"
Prashasan Nagar Post Office,17.4205534,78.4023787,"CCC3+63F, Rd Number 72, Prashasan Nagar, Jubilee Hills, Hyderabad, Telangana 500096"
"Sub - Post Office, Manovikas Nagar",17.4687117,78.4895766,"FF9Q+FWQ, Hasmatpet Rd, Manovikas Nagar, Bowenpally, Secunderabad, Telangana 500009"
Sub Post Office Shamshabad,17.2636777,78.387079,"797Q+G9C, Plot No.35 & 36, M.N.R. Complex, Beside central bank of India, Bus Stand Colony, R B Nagar, Shamshabad, Hyderabad, Telangana 501218"
Kakatiyanagar Post Office,17.3927788,78.4245916,"9CVF+4W9, Mehdipatnam, Nanal Nagar Road, Kakatiya Nagar, Toli Chowki, Hyderabad, Telangana 500008"
Yakutpura Post Office,17.3627704,78.4861381,"9F7P+4H3, Shah Faiz Kaman Road, Hyderabad, Telangana 500023"
Post Office Badangpet,17.3052504,78.524842,"Siva Sai Puram, Badangpet, Telangana 500112"
Sainikpuri Post Office,17.4898095,78.5410016,"FGQR+WGF, Saipuram Rd, Sai Baba Officers Colony, Sainikpuri, Secunderabad, Telangana 500094"
Lingampalli SO Post-office,17.4782224,78.319369,"Anand Nagar Bapu Nagar, 7-14/1, Old Mumbai Hwy, Gulmohar Park Colony, Serilingampalle (M), Telangana 500019"
Indian Post Bharat nagar,17.466608,78.4286275,"FC8H+JHV, SP Nagar, Bharat Nagar, Moosapet, Hyderabad, Telangana 500018"
Erragadda Post Office,17.4534573,78.4321544,"FC3J+9XM, D. Shankar Lal nagar, Vikaspuri, Erragadda, Hyderabad, Telangana 500018"
"Ramachandrapuram He S.O, BHEL Post Office",17.4947063,78.3040495,"F8V3+VPP, BHEL MIG Rd, MIG Colony, MIG Phase I, Bharat Heavy Electricals Limited, Serilingampalle (M), Hyderabad, Telangana 502032"
Central Secretariat Postoffice,17.4098026,78.4696535,"CF59+WXF, Telangana Secretariat Rd, Central Secretariat, Khairtabad, Hyderabad, Telangana 500022"
HAL Post Office,17.4682963,78.4503151,"FF92+869, Balanagar, Hyderabad, Telangana 500042"
Bahadurpura Post Office,17.3573096,78.4551535,"19-1-884/7, Devi Bagh, Bandlaguda, Bahadurpura, Hyderabad, Telangana 500264"
Post office,17.4580421,78.4511805,"No 5/111, 1, opposite Janardhan Reddy Estate, LBS Nagar, Shastri Nagar, Fatehnagar, Begumpet, Hyderabad, Telangana 500018"
Pshope,17.3521819,78.5362308,"9G2P+VJC, Saroornagar, Brindavan Colony, Hyderabad, Lingojiguda, Telangana 500035"
Pahadishareef Postoffice,17.2720095,78.4717205,"7FCC+RR2, Pahadi Shareef, Hyderabad, Telangana 500005"
Sub Post Office,17.3526536,78.5353641,"9G3P+376, Samatha Colony, Brindavan Colony, Hyderabad, Lingojiguda, Telangana 500035"
Post Office Bhaskar Nagar,17.3332,78.2982184,"Bhaskar Nagar, Yenkapally, Rangareddy, SH-4, Hyderabad Vikarabad Road, Moinabad, Moinabad, Telangana 500075"
"National Sorting Hub, Post Office",17.4480063,78.4717575,"CFXC+6R3, Begumpet Airport Flyover, Motilal Nehru Nagar, Begumpet, Hyderabad, Telangana 500016"